IRIDIUM 166             
1 43570U 18061B   24087.60807879  .00000346  00000+0  11634-3 0  9991
2 43570  86.3999  35.8880 0002576  86.5090 273.6400 14.34220584297075
IRIDIUM 158             
1 43571U 18061C   24087.57636711  .00000097  00000+0  27408-4 0  9993
2 43571  86.3999  35.9105 0002362  81.2074 278.9389 14.34215941297035
IRIDIUM 165             
1 43572U 18061D   24087.60174260  .00000467  00000+0  15983-3 0  9999
2 43572  86.3999  35.9307 0002384  80.4473 279.6992 14.34216018297065
IRIDIUM 155             
1 43573U 18061E   24087.56367249  .00000693  00000+0  24026-3 0  9995
2 43573  86.4002  35.8542 0002618  80.9349 279.2143 14.34209575297029
IRIDIUM 154             
1 43574U 18061F   24087.33534946  .00000080  00000+0  21574-4 0  9997
2 43574  86.4001  36.0452 0001991  85.9238 274.2185 14.34218527297047
IRIDIUM 163             
1 43575U 18061G   24087.59538943  .00000300  00000+0  10012-3 0  9996
2 43575  86.3999  35.8769 0002253  89.1256 271.0198 14.34215747297050
IRIDIUM 156             
1 43576U 18061H   24087.57002808  .00000673  00000+0  23307-3 0  9995
2 43576  86.3995  35.8939 0002375  82.4727 277.6738 14.34215462297045
IRIDIUM 164             
1 43577U 18061J   24087.55099404  .00000405  00000+0  13753-3 0  9999
2 43577  86.4001  35.9297 0002180  80.9972 279.1470 14.34220054297089
